[{"OBJECT_NAME":"JILIN-1 GAOFEN 03D50","OBJECT_ID":"2022-167J","EPOCH":"2026-03-09T22:35:59.947584","MEAN_MOTION":15.32279726,"ECCENTRICITY":0.00065764,"INCLINATION":97.6731,"RA_OF_ASC_NODE":232.9458,"ARG_OF_PERICENTER":101.1473,"MEAN_ANOMALY":259.0507,"EPHEMERIS_TYPE":0,"CLASSIFICATION_TYPE":"U","NORAD_CAT_ID":54690,"ELEMENT_SET_NO":999,"REV_AT_EPOCH":18014,"BSTAR":0.00049467973,"MEAN_MOTION_DOT":0.00015359,"MEAN_MOTION_DDOT":0},{"OBJECT_NAME":"STARLINK-35026","OBJECT_ID":"2025-198Y","EPOCH":"2026-03-09T22:36:41.553504","MEAN_MOTION":15.30185718,"ECCENTRICITY":0.00015757,"INCLINATION":53.1596,"RA_OF_ASC_NODE":270.1828,"ARG_OF_PERICENTER":53.9969,"MEAN_ANOMALY":306.1177,"EPHEMERIS_TYPE":0,"CLASSIFICATION_TYPE":"U","NORAD_CAT_ID":65514,"ELEMENT_SET_NO":999,"REV_AT_EPOCH":2865,"BSTAR":0.00068971661,"MEAN_MOTION_DOT":0.00020115,"MEAN_MOTION_DDOT":0}]
